start=new Date('2021-12-15T00:00:00.000Z').valueOf();
sats=[{"DECAY_DATE":null,"FILE":"3240057","MEAN_ANOMALY":"300.2083","GP_ID":"191692600","CENTER_NAME":"EARTH","ECCENTRICITY":"0.00015400","REV_AT_EPOCH":"10368","NORAD_CAT_ID":"45066","MEAN_MOTION":"15.06393643","OBJECT_ID":"2020-006Y","RA_OF_ASC_NODE":"7.9193","TLE_LINE1":"1 45066U 20006Y   21348.46078870  .00000905  00000-0  79649-4 0  9990","INCLINATION":"53.0564","PERIOD":"95.593","EPOCH":"2021-12-14T11:03:32.143680","COUNTRY_CODE":"US","TIME_SYSTEM":"UTC","LAUNCH_DATE":"2020-01-29","PERIAPSIS":"546.167","MEAN_MOTION_DOT":"0.00000905","ARG_OF_PERICENTER":"59.9058","OBJECT_NAME":"STARLINK-1145","RCS_SIZE":"LARGE","BSTAR":"0.00007964900000","SEMIMAJOR_AXIS":"6925.368","EPHEMERIS_TYPE":"0","CLASSIFICATION_TYPE":"U","OBJECT_TYPE":"PAYLOAD","ELEMENT_SET_NO":"999","SITE":"AFETR","TLE_LINE2":"2 45066  53.0564   7.9193 0001540  59.9058 300.2083 15.06393643103685","MEAN_MOTION_DDOT":"0.0000000000000","APOAPSIS":"548.300","MEAN_ELEMENT_THEORY":"SGP4","REF_FRAME":"TEME"},{"TLE_LINE1":"1 45067U 20006Z   21348.34283623  .00001918  00000-0  14763-3 0  9992","OBJECT_ID":"2020-006Z","RA_OF_ASC_NODE":"8.4335","MEAN_MOTION":"15.06397482","TIME_SYSTEM":"UTC","COUNTRY_CODE":"US","EPOCH":"2021-12-14T08:13:41.050272","PERIOD":"95.592","INCLINATION":"53.0551","CENTER_NAME":"EARTH","GP_ID":"191692850","MEAN_ANOMALY":"302.5457","FILE":"3240057","DECAY_DATE":null,"NORAD_CAT_ID":"45067","REV_AT_EPOCH":"10367","ECCENTRICITY":"0.00016170","OBJECT_TYPE":"PAYLOAD","EPHEMERIS_TYPE":"0","SEMIMAJOR_AXIS":"6925.356","CLASSIFICATION_TYPE":"U","MEAN_ELEMENT_THEORY":"SGP4","REF_FRAME":"TEME","APOAPSIS":"548.341","MEAN_MOTION_DDOT":"0.0000000000000","TLE_LINE2":"2 45067  53.0551   8.4335 0001617  57.5688 302.5457 15.06397482103678","SITE":"AFETR","ELEMENT_SET_NO":"999","LAUNCH_DATE":"2020-01-29","BSTAR":"0.00014763000000","RCS_SIZE":"LARGE","OBJECT_NAME":"STARLINK-1150","ARG_OF_PERICENTER":"57.5688","MEAN_MOTION_DOT":"0.00001918","PERIAPSIS":"546.101"},{"MEAN_ANOMALY":"284.6960","FILE":"3240057","DECAY_DATE":null,"CENTER_NAME":"EARTH","GP_ID":"191693102","NORAD_CAT_ID":"45068","REV_AT_EPOCH":"10368","ECCENTRICITY":"0.00013900","MEAN_MOTION":"15.06386595","OBJECT_ID":"2020-006AA","RA_OF_ASC_NODE":"7.9055","TLE_LINE1":"1 45068U 20006AA  21348.46448292  .00000338  00000-0  41615-4 0  9993","INCLINATION":"53.0559","PERIOD":"95.593","TIME_SYSTEM":"UTC","COUNTRY_CODE":"US","EPOCH":"2021-12-14T11:08:51.324288","LAUNCH_DATE":"2020-01-29","OBJECT_NAME":"STARLINK-1161","ARG_OF_PERICENTER":"75.4183","MEAN_MOTION_DOT":"0.00000338","PERIAPSIS":"546.292","BSTAR":"0.00004161500000","RCS_SIZE":"LARGE","SEMIMAJOR_AXIS":"6925.390","EPHEMERIS_TYPE":"0","CLASSIFICATION_TYPE":"U","OBJECT_TYPE":"PAYLOAD","MEAN_MOTION_DDOT":"0.0000000000000","SITE":"AFETR","TLE_LINE2":"2 45068  53.0559   7.9055 0001390  75.4183 284.6960 15.06386595103680","ELEMENT_SET_NO":"999","MEAN_ELEMENT_THEORY":"SGP4","REF_FRAME":"TEME","APOAPSIS":"548.217"},{"LAUNCH_DATE":"2020-01-29","RCS_SIZE":"LARGE","BSTAR":"0.00000460560000","ARG_OF_PERICENTER":"63.7979","OBJECT_NAME":"STARLINK-1167","MEAN_MOTION_DOT":"-0.00000213","PERIAPSIS":"546.175","OBJECT_TYPE":"PAYLOAD","SEMIMAJOR_AXIS":"6925.358","CLASSIFICATION_TYPE":"U","EPHEMERIS_TYPE":"0","MEAN_ELEMENT_THEORY":"SGP4","REF_FRAME":"TEME","APOAPSIS":"548.270","MEAN_MOTION_DDOT":"0.0000000000000","ELEMENT_SET_NO":"999","TLE_LINE2":"2 45071  53.0561   7.9993 0001513  63.7979 296.3165 15.06397077103682","SITE":"AFETR","GP_ID":"191693852","CENTER_NAME":"EARTH","FILE":"3240057","MEAN_ANOMALY":"296.3165","DECAY_DATE":null,"REV_AT_EPOCH":"10368","NORAD_CAT_ID":"45071","ECCENTRICITY":"0.00015130","TLE_LINE1":"1 45071U 20006AD  21348.44235650 -.00000213  00000-0  46056-5 0  9995","OBJECT_ID":"2020-006AD","RA_OF_ASC_NODE":"7.9993","MEAN_MOTION":"15.06397077","EPOCH":"2021-12-14T10:36:59.601600","COUNTRY_CODE":"US","TIME_SYSTEM":"UTC","INCLINATION":"53.0561","PERIOD":"95.592"},{"TLE_LINE1":"1 45072U 20006AE  21348.37970062 -.00000581  00000-0 -20095-4 0  9994","OBJECT_ID":"2020-006AE","RA_OF_ASC_NODE":"8.2728","MEAN_MOTION":"15.06398718","TIME_SYSTEM":"UTC","EPOCH":"2021-12-14T09:06:46.133568","COUNTRY_CODE":"US","INCLINATION":"53.0544","PERIOD":"95.592","GP_ID":"191692101","CENTER_NAME":"EARTH","DECAY_DATE":null,"MEAN_ANOMALY":"293.0072","FILE":"3240057","ECCENTRICITY":"0.00017840","NORAD_CAT_ID":"45072","REV_AT_EPOCH":"10367","OBJECT_TYPE":"PAYLOAD","EPHEMERIS_TYPE":"0","SEMIMAJOR_AXIS":"6925.352","CLASSIFICATION_TYPE":"U","APOAPSIS":"548.453","MEAN_ELEMENT_THEORY":"SGP4","REF_FRAME":"TEME","SITE":"AFETR","TLE_LINE2":"2 45072  53.0544   8.2728 0001784  67.1105 293.0072 15.06398718103676","ELEMENT_SET_NO":"999","MEAN_MOTION_DDOT":"0.0000000000000","LAUNCH_DATE":"2020-01-29","BSTAR":"-0.00002009500000","RCS_SIZE":"LARGE","MEAN_MOTION_DOT":"-0.00000581","PERIAPSIS":"545.982","OBJECT_NAME":"STARLINK-1168","ARG_OF_PERICENTER":"67.1105"},{"APOAPSIS":"548.192","MEAN_ELEMENT_THEORY":"SGP4","REF_FRAME":"TEME","TLE_LINE2":"2 45073  53.0554   7.8553 0001443  60.3116 299.8016 15.06406797103688","SITE":"AFETR","ELEMENT_SET_NO":"999","MEAN_MOTION_DDOT":"0.0000000000000","OBJECT_TYPE":"PAYLOAD","SEMIMAJOR_AXIS":"6925.328","CLASSIFICATION_TYPE":"U","EPHEMERIS_TYPE":"0","BSTAR":"0.00014315000000","RCS_SIZE":"LARGE","MEAN_MOTION_DOT":"0.00001852","PERIAPSIS":"546.193","OBJECT_NAME":"STARLINK-1170","ARG_OF_PERICENTER":"60.3116","LAUNCH_DATE":"2020-01-29","TIME_SYSTEM":"UTC","COUNTRY_CODE":"US","EPOCH":"2021-12-14T11:19:27.551424","INCLINATION":"53.0554","PERIOD":"95.592","TLE_LINE1":"1 45073U 20006AF  21348.47184666  .00001852  00000-0  14315-3 0  9990","MEAN_MOTION":"15.06406797","OBJECT_ID":"2020-006AF","RA_OF_ASC_NODE":"7.8553","ECCENTRICITY":"0.00014430","NORAD_CAT_ID":"45073","REV_AT_EPOCH":"10368","GP_ID":"191692351","CENTER_NAME":"EARTH","DECAY_DATE":null,"MEAN_ANOMALY":"299.8016","FILE":"3240057"},{"MEAN_MOTION":"15.06394718","OBJECT_ID":"2020-006AG","RA_OF_ASC_NODE":"7.9391","TLE_LINE1":"1 45074U 20006AG  21348.45709975 -.00000545  00000-0 -17676-4 0  9999","PERIOD":"95.592","INCLINATION":"53.0563","TIME_SYSTEM":"UTC","EPOCH":"2021-12-14T10:58:13.418400","COUNTRY_CODE":"US","MEAN_ANOMALY":"303.1883","FILE":"3240057","DECAY_DATE":null,"CENTER_NAME":"EARTH","GP_ID":"191693602","NORAD_CAT_ID":"45074","REV_AT_EPOCH":"10368","ECCENTRICITY":"0.00017880","SEMIMAJOR_AXIS":"6925.365","CLASSIFICATION_TYPE":"U","EPHEMERIS_TYPE":"0","OBJECT_TYPE":"PAYLOAD","MEAN_MOTION_DDOT":"0.0000000000000","TLE_LINE2":"2 45074  53.0563   7.9391 0001788  56.9277 303.1883 15.06394718103681","SITE":"AFETR","ELEMENT_SET_NO":"999","MEAN_ELEMENT_THEORY":"SGP4","REF_FRAME":"TEME","APOAPSIS":"548.468","LAUNCH_DATE":"2020-01-29","OBJECT_NAME":"STARLINK-1172","ARG_OF_PERICENTER":"56.9277","PERIAPSIS":"545.991","MEAN_MOTION_DOT":"-0.00000545","BSTAR":"-0.00001767600000","RCS_SIZE":"LARGE"},{"TLE_LINE1":"1 45075U 20006AH  21348.29122918  .00001166  00000-0  97199-4 0  9994","RA_OF_ASC_NODE":"8.6839","MEAN_MOTION":"15.06395724","OBJECT_ID":"2020-006AH","EPOCH":"2021-12-14T06:59:22.201152","COUNTRY_CODE":"US","TIME_SYSTEM":"UTC","INCLINATION":"53.0546","PERIOD":"95.592","CENTER_NAME":"EARTH","GP_ID":"191693353","FILE":"3240057","MEAN_ANOMALY":"295.9352","DECAY_DATE":null,"REV_AT_EPOCH":"10366","NORAD_CAT_ID":"45075","ECCENTRICITY":"0.00018450","OBJECT_TYPE":"PAYLOAD","CLASSIFICATION_TYPE":"U","SEMIMAJOR_AXIS":"6925.362","EPHEMERIS_TYPE":"0","MEAN_ELEMENT_THEORY":"SGP4","REF_FRAME":"TEME","APOAPSIS":"548.504","MEAN_MOTION_DDOT":"0.0000000000000","ELEMENT_SET_NO":"999","SITE":"AFETR","TLE_LINE2":"2 45075  53.0546   8.6839 0001845  64.1827 295.9352 15.06395724103669","LAUNCH_DATE":"2020-01-29","RCS_SIZE":"LARGE","BSTAR":"0.00009719900000","ARG_OF_PERICENTER":"64.1827","OBJECT_NAME":"STARLINK-1174","MEAN_MOTION_DOT":"0.00001166","PERIAPSIS":"545.949"},{"TLE_LINE1":"1 45076U 20006AJ  21348.43129349  .00000913  00000-0  80213-4 0  9994","MEAN_MOTION":"15.06397164","OBJECT_ID":"2020-006AJ","RA_OF_ASC_NODE":"8.0427","TIME_SYSTEM":"UTC","COUNTRY_CODE":"US","EPOCH":"2021-12-14T10:21:03.757536","PERIOD":"95.592","INCLINATION":"53.0558","GP_ID":"191692601","CENTER_NAME":"EARTH","DECAY_DATE":null,"MEAN_ANOMALY":"302.9527","FILE":"3240057","ECCENTRICITY":"0.00015110","NORAD_CAT_ID":"45076","REV_AT_EPOCH":"10368","OBJECT_TYPE":"PAYLOAD","CLASSIFICATION_TYPE":"U","SEMIMAJOR_AXIS":"6925.357","EPHEMERIS_TYPE":"0","APOAPSIS":"548.269","MEAN_ELEMENT_THEORY":"SGP4","REF_FRAME":"TEME","SITE":"AFETR","TLE_LINE2":"2 45076  53.0558   8.0427 0001511  57.1608 302.9527 15.06397164103684","ELEMENT_SET_NO":"999","MEAN_MOTION_DDOT":"0.0000000000000","LAUNCH_DATE":"2020-01-29","BSTAR":"0.00008021300000","RCS_SIZE":"LARGE","PERIAPSIS":"546.176","MEAN_MOTION_DOT":"0.00000913","OBJECT_NAME":"STARLINK-1180","ARG_OF_PERICENTER":"57.1608"},{"REV_AT_EPOCH":"10413","NORAD_CAT_ID":"45077","ECCENTRICITY":"0.00016540","FILE":"3240057","MEAN_ANOMALY":"312.3494","DECAY_DATE":null,"CENTER_NAME":"EARTH","GP_ID":"191692851","INCLINATION":"53.0555","PERIOD":"92.908","COUNTRY_CODE":"US","EPOCH":"2021-12-14T09:05:45.894624","TIME_SYSTEM":"UTC","MEAN_MOTION":"15.49924922","OBJECT_ID":"2020-006AK","RA_OF_ASC_NODE":"335.8007","TLE_LINE1":"1 45077U 20006AK  21348.37900341  .00349831  00000-0  58912-2 0  9991","ARG_OF_PERICENTER":"47.7654","OBJECT_NAME":"STARLINK-1182","PERIAPSIS":"415.824","MEAN_MOTION_DOT":"0.00349831","RCS_SIZE":"LARGE","BSTAR":"0.00589120000000","LAUNCH_DATE":"2020-01-29","MEAN_MOTION_DDOT":"0.0000000000000","ELEMENT_SET_NO":"999","TLE_LINE2":"2 45077  53.0555 335.8007 0001654  47.7654 312.3494 15.49924922104135","SITE":"AFETR","MEAN_ELEMENT_THEORY":"SGP4","REF_FRAME":"TEME","APOAPSIS":"418.071","SEMIMAJOR_AXIS":"6795.082","EPHEMERIS_TYPE":"0","CLASSIFICATION_TYPE":"U","OBJECT_TYPE":"PAYLOAD"}];
